H1 CPF 01  gfz 2021 08 30 00  7421 terrasarx 
H2 0702601  6201 31698    2021 08 30 00 59 42 2021 09 04 00 00 42   120 1 1  0 0 0
H9
10 0 59459   9342.000000  0    1103907.930    -43017.420  -6806125.642
10 0 59459   9462.000000  0     532714.734   -761351.702  -6832291.922
10 0 59459   9582.000000  0     -60067.168  -1456318.571  -6739320.279
10 0 59459   9702.000000  0    -663657.383  -2115597.389  -6528807.937
10 0 59459   9822.000000  0   -1266872.960  -2727663.626  -6204376.054
10 0 59459   9942.000000  0   -1858330.819  -3281988.128  -5771613.730
10 0 59459  10062.000000  0   -2426657.621  -3769217.396  -5237991.497
10 0 59459  10182.000000  0   -2960706.109  -4181334.752  -4612744.976
10 0 59459  10302.000000  0   -3449774.175  -4511798.286  -3906725.833
10 0 59459  10422.000000  0   -3883820.446  -4755651.395  -3132222.645
10 0 59459  10542.000000  0   -4253673.222  -4909604.478  -2302754.166
10 0 59459  10662.000000  0   -4551227.693  -4972084.717  -1432836.688
10 0 59459  10782.000000  0   -4769626.064  -4943252.361   -537729.552
10 0 59459  10902.000000  0   -4903415.702  -4824982.558    366836.494
10 0 59459  11022.000000  0   -4948681.051  -4620812.577   1264943.066
10 0 59459  11142.000000  0   -4903144.850  -4335854.203   2140773.911
10 0 59459  11262.000000  0   -4766235.688  -3976673.847   2978902.555
10 0 59459  11382.000000  0   -4539120.956  -3551144.102   3764571.596
10 0 59459  11502.000000  0   -4224704.504  -3068270.799   4483958.547
10 0 59459  11622.000000  0   -3827588.036  -2537998.930   5124421.885
10 0 59459  11742.000000  0   -3353999.413  -1971004.481   5674721.403
10 0 59459  11862.000000  0   -2811690.411  -1378477.390   6125212.561
10 0 59459  11982.000000  0   -2209804.458   -771898.104   6468012.145
10 0 59459  12102.000000  0   -1558716.763   -162812.189   6697130.512
10 0 59459  12222.000000  0    -869851.440    437389.226   6808568.390
10 0 59459  12342.000000  0    -155480.760   1017680.766   6800382.045
10 0 59459  12462.000000  0     571493.061   1567604.787   6672715.377
10 0 59459  12582.000000  0    1297770.364   2077459.927   6427797.680
10 0 59459  12702.000000  0    2009896.568   2538472.187   6069906.363
10 0 59459  12822.000000  0    2694510.707   2942946.552   5605297.461
10 0 59459  12942.000000  0    3338597.869   3284398.292   5042103.260
10 0 59459  13062.000000  0    3929740.094   3557660.433   4390194.701
10 0 59459  13182.000000  0    4456358.229   3758964.285   3661013.795
10 0 59459  13302.000000  0    4907947.022   3885994.660   2867377.693
10 0 59459  13422.000000  0    5275290.814   3937914.035   2023250.803
10 0 59459  13542.000000  0    5550656.767   3915356.168   1143496.718
10 0 59459  13662.000000  0    5727961.042   3820389.974    243610.137
10 0 59459  13782.000000  0    5802902.698   3656453.177   -660564.706
10 0 59459  13902.000000  0    5773061.452   3428257.872  -1553121.831
10 0 59459  14022.000000  0    5637957.560   3141670.351  -2418381.541
10 0 59459  14142.000000  0    5399072.059   2803569.059  -3241171.857
10 0 59459  14262.000000  0    5059828.884   2421684.541  -4007097.867
10 0 59459  14382.000000  0    4625538.840   2004424.979  -4702795.142
10 0 59459  14502.000000  0    4103305.171   1560691.146  -5316159.075
10 0 59459  14622.000000  0    3501897.936   1099687.715  -5836547.387
10 0 59459  14742.000000  0    2831598.628    630734.332  -6254955.410
10 0 59459  14862.000000  0    2104018.025    163079.804  -6564160.458
10 0 59459  14982.000000  0    1331893.227   -294276.153  -6758834.798
10 0 59459  15102.000000  0     528866.291   -732752.090  -6835629.342
10 0 59459  15222.000000  0    -290754.461  -1144341.804  -6793224.119
10 0 59459  15342.000000  0   -1112242.869  -1521756.028  -6632347.435
10 0 59459  15462.000000  0   -1920713.163  -1858548.408  -6355765.701
10 0 59459  15582.000000  0   -2701383.994  -2149224.064  -5968240.499
10 0 59459  15702.000000  0   -3439842.929  -2389328.415  -5476455.138
10 0 59459  15822.000000  0   -4122311.040  -2575516.821  -4888911.804
10 0 59459  15942.000000  0   -4735902.740  -2705602.476  -4215795.776
10 0 59459  16062.000000  0   -5268873.806  -2778581.122  -3468809.110
10 0 59459  16182.000000  0   -5710854.129  -2794632.196  -2660975.532
10 0 59459  16302.000000  0   -6053059.147  -2755095.470  -1806417.987
10 0 59459  16422.000000  0   -6288474.027  -2662423.768   -920112.914
10 0 59459  16542.000000  0   -6412006.167  -2520112.061    -17625.027
10 0 59459  16662.000000  0   -6420601.029  -2332604.392    885171.664
10 0 59459  16782.000000  0   -6313318.511  -2105180.776   1772381.622
10 0 59459  16902.000000  0   -6091365.155  -1843826.810   2628377.684
10 0 59459  17022.000000  0   -5758082.714  -1555089.365   3438084.112
10 0 59459  17142.000000  0   -5318895.009  -1245922.266   4187249.807
10 0 59459  17262.000000  0   -4781210.335   -923525.346   4862703.653
10 0 59459  17382.000000  0   -4154287.253   -595182.297   5452584.992
10 0 59459  17502.000000  0   -3449067.352   -268100.763   5946550.211
10 0 59459  17622.000000  0   -2677975.537     50742.926   6335950.693
10 0 59459  17742.000000  0   -1854693.538    354749.457   6613978.237
10 0 59459  17862.000000  0    -993912.284    637829.575   6775777.728
10 0 59459  17982.000000  0    -111067.817    894524.119   6818526.295
10 0 59459  18102.000000  0     777935.207   1120107.971   6741478.927
10 0 59459  18222.000000  0    1657008.889   1310676.887   6545980.789
10 0 59459  18342.000000  0    2510172.261   1463215.431   6235445.036
10 0 59459  18462.000000  0    3321841.534   1575644.676   5815297.581
10 0 59459  18582.000000  0    4077117.441   1646849.319   5292887.705
10 0 59459  18702.000000  0    4762061.675   1676683.772   4677365.173
10 0 59459  18822.000000  0    5363960.734   1665958.023   3979527.791
10 0 59459  18942.000000  0    5871572.831   1616402.088   3211635.004
10 0 59459  19062.000000  0    6275345.828   1530609.997   2387192.142
10 0 59459  19182.000000  0    6567606.822   1411963.891   1520712.460
10 0 59459  19302.000000  0    6742716.082   1264541.052    627455.928
10 0 59459  19422.000000  0    6797180.768   1093005.592   -276846.366
10 0 59459  19542.000000  0    6729726.826    902487.415  -1176278.642
10 0 59459  19662.000000  0    6541323.856    698450.989  -2055029.507
10 0 59459  19782.000000  0    6235166.152    486557.630  -2897676.663
10 0 59459  19902.000000  0    5816609.578    272525.990  -3689462.811
10 0 59459  20022.000000  0    5293066.332     61993.573  -4416556.532
10 0 59459  20142.000000  0    4673859.639   -139617.318  -5066291.831
10 0 59459  20262.000000  0    3970045.443   -327225.534  -5627381.666
10 0 59459  20382.000000  0    3194206.001   -496206.612  -6090105.468
10 0 59459  20502.000000  0    2360217.580   -642496.129  -6446467.812
10 0 59459  20622.000000  0    1482998.485   -762677.827  -6690324.164
10 0 59459  20742.000000  0     578243.819   -854056.559  -6817476.712
10 0 59459  20862.000000  0    -337852.172   -914713.712  -6825739.240
10 0 59459  20982.000000  0   -1248879.488   -943544.695  -6714969.694
10 0 59459  21102.000000  0   -2138499.515   -940278.533  -6487072.979
10 0 59459  21222.000000  0   -2990731.787   -905478.696  -6145970.605
10 0 59459  21342.000000  0   -3790234.314   -840525.799  -5697540.328
10 0 59459  21462.000000  0   -4522578.504   -747582.231  -5149526.603
10 0 59459  21582.000000  0   -5174512.029   -629538.637  -4511417.701
10 0 59459  21702.000000  0   -5734204.175   -489943.968  -3794292.970
10 0 59459  21822.000000  0   -6191470.820   -332919.531  -3010640.292
10 0 59459  21942.000000  0   -6537971.612   -163058.064  -2174144.657
10 0 59459  22062.000000  0   -6767375.478     14688.763  -1299452.615
10 0 59459  22182.000000  0   -6875490.203    195133.771   -401914.027
10 0 59459  22302.000000  0   -6860347.989    372984.083    502693.968
10 0 59459  22422.000000  0   -6722247.087    542974.694   1398450.528
10 0 59459  22542.000000  0   -6463749.752    700001.941   2269579.773
10 0 59459  22662.000000  0   -6089633.847    839253.690   3100738.114
10 0 59459  22782.000000  0   -5606798.914    956332.884   3877292.794
10 0 59459  22902.000000  0   -5024129.969   1047371.065   4585584.505
10 0 59459  23022.000000  0   -4352323.962   1109129.126   5213169.442
10 0 59459  23142.000000  0   -3603683.607   1139082.797   5749036.276
10 0 59459  23262.000000  0   -2791883.771   1135491.508   6183796.297
10 0 59459  23382.000000  0   -1931714.293   1097448.915   6509843.834
10 0 59459  23502.000000  0   -1038804.001   1024914.848   6721483.143
10 0 59459  23622.000000  0    -129334.063    918727.093   6815020.653
10 0 59459  23742.000000  0     780254.857    780593.414   6788824.773
10 0 59459  23862.000000  0    1673558.480    613064.105   6643352.450
10 0 59459  23982.000000  0    2534503.400    419485.516   6381141.916
10 0 59459  24102.000000  0    3347636.066    203934.922   6006772.294
10 0 59459  24222.000000  0    4098402.555    -28862.566   5526788.672
10 0 59459  24342.000000  0    4773412.852   -273633.488   4949593.452
10 0 59459  24462.000000  0    5360685.908   -524669.929   4285305.205
10 0 59459  24582.000000  0    5849870.777   -775956.207   3545586.325
10 0 59459  24702.000000  0    6232439.746  -1021305.364   2743440.933
10 0 59459  24822.000000  0    6501847.066  -1254502.513   1892985.081
10 0 59459  24942.000000  0    6653648.770  -1469450.726   1009194.420
10 0 59459  25062.000000  0    6685582.213  -1660317.841    107635.244
10 0 59459  25182.000000  0    6597602.326  -1821679.808   -795818.887
10 0 59459  25302.000000  0    6391871.066  -1948655.009  -1685275.777
10 0 59459  25422.000000  0    6072703.385  -2037028.004  -2545112.718
10 0 59459  25542.000000  0    5646469.360  -2083358.603  -3360257.150
10 0 59459  25662.000000  0    5121457.269  -2085073.958  -4116453.402
10 0 59459  25782.000000  0    4507702.236  -2040541.687  -4800511.410
99
